{
  "type": "FeatureCollection",
  "features": [
    {
      "type": "Feature",
      "properties": {
        "norad_id": 40894,
        "name": "GAOFEN-9 01",
        "group": "resource",
        "lat": 28.383767195559738,
        "lon": 20.620743370812537,
        "alt_km": 600.6975168115587,
        "timestamp": "2025-12-11T18:59:45.723556+00:00",
        "meta_object_name": "GAOFEN-9 01",
        "meta_object_id": "2015-047A",
        "meta_epoch": "2025-12-11T07:31:41.176128",
        "meta_mean_motion": 14.82424223,
        "meta_eccentricity": 0.0028507,
        "meta_inclination": 97.6544,
        "meta_ra_of_asc_node": 24.3307,
        "meta_arg_of_pericenter": 38.794,
        "meta_mean_anomaly": 321.5313,
        "meta_ephemeris_type": 0,
        "meta_classification_type": "U",
        "meta_norad_cat_id": 40894,
        "meta_element_set_no": 999,
        "meta_rev_at_epoch": 55235,
        "meta_bstar": 0.00037105222,
        "meta_mean_motion_dot": 2.944e-05,
        "meta_mean_motion_ddot": 0,
        "tle_line1": "1 40894U 15047A   25345.31367102  .00002944  00000+0  37105-3 0  9991",
        "tle_line2": "2 40894  97.6544  24.3307 0028507  38.7940 321.5313 14.82424223552354"
      },
      "geometry": {
        "type": "Point",
        "coordinates": [
          20.620743370812537,
          28.383767195559738
        ]
      }
    },
    {
      "type": "Feature",
      "properties": {
        "norad_id": 41026,
        "name": "YAOGAN-28",
        "group": "resource",
        "lat": 36.74302705162506,
        "lon": 118.13345641665379,
        "alt_km": 490.430193982731,
        "timestamp": "2025-12-11T18:59:45.723566+00:00",
        "meta_object_name": "YAOGAN-28",
        "meta_object_id": "2015-064A",
        "meta_epoch": "2025-12-11T07:48:19.776960",
        "meta_mean_motion": 15.24333956,
        "meta_eccentricity": 0.00123295,
        "meta_inclination": 97.2805,
        "meta_ra_of_asc_node": 123.1573,
        "meta_arg_of_pericenter": 130.5249,
        "meta_mean_anomaly": 229.7065,
        "meta_ephemeris_type": 0,
        "meta_classification_type": "U",
        "meta_norad_cat_id": 41026,
        "meta_element_set_no": 999,
        "meta_rev_at_epoch": 56203,
        "meta_bstar": 0.0011440145,
        "meta_mean_motion_dot": 0.00028053,
        "meta_mean_motion_ddot": 0,
        "tle_line1": "1 41026U 15064A   25345.32522890  .00028053  00000+0  11440-2 0  9998",
        "tle_line2": "2 41026  97.2805 123.1573 0012329 130.5249 229.7065 15.24333956562037"
      },
      "geometry": {
        "type": "Point",
        "coordinates": [
          118.13345641665379,
          36.74302705162506
        ]
      }
    },
    {
      "type": "Feature",
      "properties": {
        "norad_id": 41038,
        "name": "YAOGAN-29",
        "group": "resource",
        "lat": -80.56348300861066,
        "lon": 67.01111027246291,
        "alt_km": 627.5016455497325,
        "timestamp": "2025-12-11T18:59:45.723576+00:00",
        "meta_object_name": "YAOGAN-29",
        "meta_object_id": "2015-069A",
        "meta_epoch": "2025-12-11T08:02:33.956736",
        "meta_mean_motion": 14.82878069,
        "meta_eccentricity": 2.971e-05,
        "meta_inclination": 98.022,
        "meta_ra_of_asc_node": 8.502,
        "meta_arg_of_pericenter": 337.7236,
        "meta_mean_anomaly": 22.3964,
        "meta_ephemeris_type": 0,
        "meta_classification_type": "U",
        "meta_norad_cat_id": 41038,
        "meta_element_set_no": 999,
        "meta_rev_at_epoch": 54278,
        "meta_bstar": 3.5955018e-05,
        "meta_mean_motion_dot": 2.37e-06,
        "meta_mean_motion_ddot": 0,
        "tle_line1": "1 41038U 15069A   25345.33511524  .00000237  00000+0  35955-4 0  9992",
        "tle_line2": "2 41038  98.0220   8.5020 0000297 337.7236  22.3964 14.82878069542788"
      },
      "geometry": {
        "type": "Point",
        "coordinates": [
          67.01111027246291,
          -80.56348300861066
        ]
      }
    },
    {
      "type": "Feature",
      "properties": {
        "norad_id": 41167,
        "name": "KENT RIDGE 1",
        "group": "resource",
        "lat": 2.264997866973743,
        "lon": -133.30703701883533,
        "alt_km": 499.71974158664943,
        "timestamp": "2025-12-11T18:59:45.723586+00:00",
        "meta_object_name": "KENT RIDGE 1",
        "meta_object_id": "2015-077B",
        "meta_epoch": "2025-12-10T22:30:20.164032",
        "meta_mean_motion": 15.21613004,
        "meta_eccentricity": 0.0008534,
        "meta_inclination": 14.9787,
        "meta_ra_of_asc_node": 224.5126,
        "meta_arg_of_pericenter": 105.1226,
        "meta_mean_anomaly": 255.004,
        "meta_ephemeris_type": 0,
        "meta_classification_type": "U",
        "meta_norad_cat_id": 41167,
        "meta_element_set_no": 999,
        "meta_rev_at_epoch": 55236,
        "meta_bstar": 0.000254,
        "meta_mean_motion_dot": 6.673e-05,
        "meta_mean_motion_ddot": 0,
        "tle_line1": "1 41167U 15077B   25344.93773338  .00006673  00000+0  25400-3 0  9995",
        "tle_line2": "2 41167  14.9787 224.5126 0008534 105.1226 255.0040 15.21613004552366"
      },
      "geometry": {
        "type": "Point",
        "coordinates": [
          -133.30703701883533,
          2.264997866973743
        ]
      }
    },
    {
      "type": "Feature",
      "properties": {
        "norad_id": 41194,
        "name": "GAOFEN-4",
        "group": "resource",
        "lat": 0.09859043599252351,
        "lon": 111.3402007175325,
        "alt_km": 35783.12351508774,
        "timestamp": "2025-12-11T18:59:45.723601+00:00",
        "meta_object_name": "GAOFEN-4",
        "meta_object_id": "2015-083A",
        "meta_epoch": "2025-12-11T00:19:06.646368",
        "meta_mean_motion": 1.00270154,
        "meta_eccentricity": 0.00035613,
        "meta_inclination": 0.1664,
        "meta_ra_of_asc_node": 80.8595,
        "meta_arg_of_pericenter": 106.7629,
        "meta_mean_anomaly": 2.8369,
        "meta_ephemeris_type": 0,
        "meta_classification_type": "U",
        "meta_norad_cat_id": 41194,
        "meta_element_set_no": 999,
        "meta_rev_at_epoch": 3664,
        "meta_bstar": 0,
        "meta_mean_motion_dot": -3.29e-06,
        "meta_mean_motion_ddot": 0,
        "tle_line1": "1 41194U 15083A   25345.01327137 -.00000329  00000+0  00000+0 0  9992",
        "tle_line2": "2 41194   0.1664  80.8595 0003561 106.7629   2.8369  1.00270154 36646"
      },
      "geometry": {
        "type": "Point",
        "coordinates": [
          111.3402007175325,
          0.09859043599252351
        ]
      }
    },
    {
      "type": "Feature",
      "properties": {
        "norad_id": 41240,
        "name": "JASON-3",
        "group": "resource",
        "lat": -49.563419741180695,
        "lon": 11.271290156634128,
        "alt_km": 1312.3620713145338,
        "timestamp": "2025-12-11T18:59:45.723612+00:00",
        "meta_object_name": "JASON-3",
        "meta_object_id": "2016-002A",
        "meta_epoch": "2025-12-11T06:35:15.477216",
        "meta_mean_motion": 12.87626489,
        "meta_eccentricity": 0.00071503,
        "meta_inclination": 66.0389,
        "meta_ra_of_asc_node": 160.9048,
        "meta_arg_of_pericenter": 270.7403,
        "meta_mean_anomaly": 89.2797,
        "meta_ephemeris_type": 0,
        "meta_classification_type": "U",
        "meta_norad_cat_id": 41240,
        "meta_element_set_no": 999,
        "meta_rev_at_epoch": 46305,
        "meta_bstar": 0.00013297585,
        "meta_mean_motion_dot": -2.9e-07,
        "meta_mean_motion_ddot": 0,
        "tle_line1": "1 41240U 16002A   25345.27448469 -.00000029  00000+0  13298-3 0  9990",
        "tle_line2": "2 41240  66.0389 160.9048 0007150 270.7403  89.2797 12.87626489463052"
      },
      "geometry": {
        "type": "Point",
        "coordinates": [
          11.271290156634128,
          -49.563419741180695
        ]
      }
    },
    {
      "type": "Feature",
      "properties": {
        "norad_id": 41335,
        "name": "SENTINEL-3A",
        "group": "resource",
        "lat": 14.107166996267205,
        "lon": -127.00206495673818,
        "alt_km": 803.3528783992988,
        "timestamp": "2025-12-11T18:59:45.723623+00:00",
        "meta_object_name": "SENTINEL-3A",
        "meta_object_id": "2016-011A",
        "meta_epoch": "2025-12-11T06:26:26.287584",
        "meta_mean_motion": 14.26745874,
        "meta_eccentricity": 9.451e-05,
        "meta_inclination": 98.6209,
        "meta_ra_of_asc_node": 50.2977,
        "meta_arg_of_pericenter": 93.9284,
        "meta_mean_anomaly": 266.2005,
        "meta_ephemeris_type": 0,
        "meta_classification_type": "U",
        "meta_norad_cat_id": 41335,
        "meta_element_set_no": 999,
        "meta_rev_at_epoch": 51126,
        "meta_bstar": 0.00012058151,
        "meta_mean_motion_dot": 2.48e-06,
        "meta_mean_motion_ddot": 0,
        "tle_line1": "1 41335U 16011A   25345.26835981  .00000248  00000+0  12058-3 0  9998",
        "tle_line2": "2 41335  98.6209  50.2977 0000945  93.9284 266.2005 14.26745874511269"
      },
      "geometry": {
        "type": "Point",
        "coordinates": [
          -127.00206495673818,
          14.107166996267205
        ]
      }
    }
  ]
}